area,name,lat,long,status,note,,住所,,,,,,,,
昭島市3,1-1,35.7038092,139.3919738,5,西立川駅南口自転車等駐車場,,東京都昭島市東 町1丁目7番,,,5,,1-完了,,,
昭島市3,1-2,35.7014091,139.3926173,5,東町児童遊園,,東京都昭島市東 町4丁目1番,,,5,,2-異常,,,
昭島市3,1-3,35.7016824,139.3890095,5,東町北部児童遊園,,東京都昭島市東 町4丁目13番,,,5,,,,,
昭島市3,1-4,35.7037452,139.3902024,5,東小学校東門,,東京都昭島市東 町2丁目2番,,,5,,4-要確認,,,
昭島市3,1-5,35.7030483,139.3887701,5,東小学校正門,,東京都昭島市東 町2丁目2番,,,5,,5-異常対応中,,,
昭島市3,1-6,35.7041845,139.3847837,5,総合スポーツセンター北,,東京都昭島市東 町5丁目13番,,,5,,,,,
昭島市3,1-7,35.702502,139.3837444,5,昭和公園西口,,東京都昭島市東 町5丁目13番,,,5,,,,,
昭島市3,1-8,35.7004139,139.385812,5,昭和公園南口,,東京都昭島市東 町5丁目6番,,,5,,,,,
昭島市3,2-1,35.7077981,139.3852161,5,昭島福島町アパート2号棟前広場,,東京都昭島市福島町1008番地,,,0,,,,,
昭島市3,2-2,35.7059594,139.3866396,5,東中神駅北口交通広場,,東京都昭島市もくせいの杜1丁目4番,,,0,,,,,
昭島市3,2-3,35.7105491,139.3835624,5,都営中神第2アパート1号棟北,,東京都昭島市中神町1282番地,,,0,,,,,
昭島市3,2-4,35.7121394,139.38255,5,都営中神第2アパート8号棟南,,東京都昭島市中神町1283番地,,,0,,,,,
昭島市3,2-5,35.7070764,139.3825623,5,富士見丘小学校南,,東京都昭島市福島町890番地,,,0,,,,,
昭島市3,2-6,35.7131299,139.3826853,5,仲町公園,,東京都昭島市中神町1282番地,,,0,,,,,
昭島市3,2-7,35.7087011,139.3820661,5,富士見丘小学校西,,東京都昭島市福島町890番地,,,0,,,,,
昭島市3,2-8,35.7097861,139.3794121,5,富士見公園,,東京都昭島市中神町1277番地,,,0,,,,,
昭島市3,2-9,35.7129348,139.3806591,5,新生公園,,東京都昭島市中神町1256番地,,,0,,,,,
昭島市3,3-1,35.7037857,139.3817004,5,八清ロータリー,,東京都昭島市玉川町3丁目9番,,,5,,,,,
昭島市3,3-2,35.7031863,139.3824315,5,八清公園南,,東京都昭島市玉川町3丁目11番,,,5,,,,,
昭島市3,3-3,35.7068991,139.3776567,5,都営玉川町二丁目アパート,,東京都昭島市玉川町2丁目9番,,,5,,,,,
昭島市3,3-4,35.7057092,139.3786075,5,旧市民交流センター,,東京都昭島市玉川町4丁目9番,,,5,,,,,
昭島市3,3-5,35.7027735,139.3762906,5,玉川児童遊園,,東京都昭島市玉川町5丁目15番,,,5,,,,,
昭島市3,3-6,35.7045811,139.3800412,5,玉川町四丁目児童遊園,,東京都昭島市玉川町4丁目6番,,,5,,,,,
昭島市3,3-7,35.7032562,139.3772224,5,玉川町五丁目道路予定地,,東京都昭島市玉川町5丁目6番,,,5,,,,,
昭島市3,4-1,35.6954748,139.3778813,5,福島中学校東門,,東京都昭島市福島町3丁目20番,,,5,,,,,
昭島市3,4-2,35.6960595,139.3863163,5,あおぞら公園南,,東京都昭島市郷地町2丁目20番,,,5,,,,,
昭島市3,4-3,35.6932744,139.3863544,5,昭島市郷地ポンプ場,,東京都昭島市郷地町3丁目3番,,,5,,,,,
昭島市3,4-4,35.7013618,139.3786756,5,玉川小学校,,東京都昭島市福島町2丁目8番,,,5,,,,,
昭島市3,4-5,35.6941246,139.3884319,5,郷地東児童遊園,,東京都昭島市郷地町2丁目29番,,,5,,,,,
昭島市3,4-6,35.6964527,139.3820854,5,福島会館入口,,東京都昭島市福島町1丁目19番,,,5,,,,,
昭島市3,4-7,35.693338,139.3824013,5,みのり児童遊園,,東京都昭島市福島町3丁目4番,,,5,,,,,
昭島市3,4-8,35.6983379,139.3850555,5,渡部宅北,,東京都昭島市福島町1丁目4番,,,5,,,,,
昭島市3,4-9,35.698983,139.3779312,5,はじめ児童遊園,,東京都昭島市福島町2丁目31番,,,5,,,,,
昭島市3,5-1,35.7093569,139.3774472,5,中神駅北口第一自転車等駐車場,,東京都昭島市中神町1175番地,,,0,,,,,
昭島市3,5-2,35.7130108,139.3756836,5,中神町新畑交差点北,,東京都昭島市中神町1148番地,,,0,,,,,
昭島市3,5-3,35.7148629,139.3737972,5,宮沢文化児童遊園,,東京都昭島市宮沢町500番地73,,,0,,,,,
昭島市3,5-4,35.7162813,139.3747948,5,北文化公園,,東京都昭島市宮沢町515番地,,,0,,,,,
昭島市3,5-5,35.712807,139.3731638,5,土地区画整理事務所,,東京都昭島市中神町1136番地,,,0,,,,,
昭島市3,5-6,35.7094284,139.3757665,5,中神駅北口,,東京都昭島市中神町1179番地5,,,0,,,,,
昭島市3,5-7,35.7130715,139.3798176,5,都営中神アパート西,,東京都昭島市中神町1151番地30,,,0,,,,,
昭島市3,5-8,35.7149738,139.376809,5,北文化公園東交差点,,東京都昭島市宮沢町521番地7,,,0,,,,,
昭島市3,5-9,35.7099247,139.37484,5,中神駅北口第二自転車等駐車場,,東京都昭島市中神町1245番地,,,0,,,,,
昭島市2,6-1,35.7086745,139.376319,2,中神駅南口第一自転車等駐車場西,,東京都昭島市朝日町1丁目1番,,,2,,,,,
昭島市2,6-2,35.7062723,139.3685021,2,都営朝日町四丁目アパート2号棟北,,東京都昭島市朝日町4丁目28番,,,2,,,,,
昭島市2,6-3,35.7068898,139.3734431,2,中神公園,,東京都昭島市朝日町3丁目10番,,,2,,,,,
昭島市2,6-4,35.7057015,139.3727107,2,中神小学校,,東京都昭島市朝日町5丁目8番,,,2,,,,,
昭島市2,6-5,35.703671,139.3691644,2,ジュン美容室北,,東京都昭島市中神町1丁目20番,,,2,,,,,
昭島市2,6-6,35.7057531,139.3711522,2,朝日町いこい公園,,東京都昭島市朝日町4丁目5番,,,2,,,,,
昭島市2,6-7,35.7089103,139.3698756,2,昭島市水道部,,東京都昭島市朝日町4丁目23番,,,2,,,,,
昭島市2,6-8,35.7083832,139.3695726,2,水道部南,,東京都昭島市朝日町4丁目23番,,,2,,,,,
昭島市2,6-9,35.7059079,139.3694491,2,都営朝日町四丁目アパート4号棟北,,東京都昭島市朝日町4丁目14番,,,2,,,,,
昭島市3,7-1,35.6992972,139.3726951,5,中神町二丁目児童遊園,,東京都昭島市中神町2丁目26番,,,5,,,,,
昭島市3,7-2,35.6978327,139.3753204,5,多摩大橋北児童遊園,,東京都昭島市中神町2丁目19番,,,5,,,,,
昭島市3,7-3,35.7013062,139.3738516,5,中神自治会館,,東京都昭島市中神町2丁目2番,,,5,,,,,
昭島市2,7-4,35.7029803,139.3667677,2,東京電力中神変電所,,東京都昭島市中神町1丁目25番,,,2,,,,,
昭島市4,8-1,35.7227195,139.3636609,0,子育てひろばほりむこう,,東京都昭島市美堀町2丁目6番,,,0,,,,,
昭島市2,8-2,35.7139365,139.3610315,2,昭島駅北口広場,,東京都昭島市代官山2丁目3番,,,2,,,,,
昭島市4,8-3,35.723025,139.3570082,0,吉沢宅南（保育園跡地）,,東京都昭島市美堀町3丁目10番,,,0,,,,,
昭島市4,8-4,35.7234752,139.3552427,0,環境コミュニケーションセンター,,東京都昭島市美堀町3丁目8番,,,0,,,,,
昭島市4,8-5,35.724522,139.357222,0,みほり広場,,東京都昭島市美堀町3丁目3番,,,0,,,,,
昭島市4,8-6,35.7153138,139.3555744,0,つつじが丘通り,,東京都昭島市代官山3丁目2番,,,0,,,,,
昭島市4,8-7,35.7171423,139.3537606,0,みほり体育館駐車場,,東京都昭島市美堀町4丁目19番,,,0,,,,,
昭島市4,8-8,35.7200016,139.348353,0,上水南第一公園,,東京都昭島市美堀町5丁目11番,,,0,,,,,
昭島市4,8-9,35.7208749,139.3459999,0,上水南第二公園,,東京都昭島市美堀町5丁目19番,,,0,,,,,
昭島市4,8-10,35.7249962,139.3679538,0,美堀町一丁目かけはし公園,,東京都昭島市美堀町1丁目4番,,,0,,,,,
昭島市2,9-1,35.7065983,139.3632612,2,清泉公園,,東京都昭島市宮沢町1丁目10番,,,2,,,,,
昭島市2,9-2,35.7109654,139.364489,2,光華小学校北門,,東京都昭島市昭和町4丁目5番,,,2,,,,,
昭島市2,9-3,35.7095672,139.3632472,2,光華小学校正門,,東京都昭島市昭和町4丁目5番,,,2,,,,,
昭島市2,9-4,35.7061256,139.3624446,2,市道昭島41号沿い,,東京都昭島市上川原町1丁目22番,,,2,,,,,
昭島市2,9-5,35.7128047,139.3629793,2,昭島駅南口立体自転車等駐車場,,東京都昭島市昭和町2丁目1番,,,2,,,,,
昭島市2,9-6,35.7108858,139.365246,2,昭和町分室西,,東京都昭島市昭和町1丁目6番,,,2,,,,,
昭島市2,9-7,35.706948,139.3653436,2,清泉中学校,,東京都昭島市宮沢町1丁目9番,,,2,,,,,
昭島市2,10-1,35.7000346,139.3671977,2,宮沢町公会堂,,東京都昭島市宮沢町2丁目37番,,,2,,,,,
昭島市2,10-2,35.7024582,139.3625508,2,五鉄通り,,東京都昭島市宮沢町2丁目24番,,,2,,,,,
昭島市1,10-3,35.7008417,139.360902,1,大神会館,,東京都昭島市大神町3丁目10番,,,4,,,,,
昭島市1,10-4,35.6990311,139.3609001,1,成隣小学校,,東京都昭島市大神町4丁目4番,,,4,,,,,
昭島市1,10-5,35.7029173,139.3597643,1,五日市鉄道大神駅跡,,東京都昭島市大神町1丁目5番,,,1,,,,,
昭島市1,10-6,35.6972487,139.3591566,1,大神町四丁目児童遊園,,東京都昭島市大神町4丁目25番,,,4,,,,,
昭島市1,10-7,35.7055457,139.3560098,1,上ノ台公園,,東京都昭島市大神町2丁目4番,,,1,,,,,
昭島市2,10-8,35.7030557,139.3620542,2,東ノ岡児童遊園,,東京都昭島市宮沢町2丁目14番,,,2,,,,,
昭島市1,11-1,35.7090443,139.3534338,1,栗の沢北交差点,,東京都昭島市田中町1丁目9番,,,1,,,,,
昭島市1,11-2,35.7111889,139.3519891,1,緑ヶ丘東児童遊園,,東京都昭島市緑 町1丁目15番,,,1,,,,,
昭島市1,11-3,35.713629,139.3511852,1,緑ヶ丘公園北,,東京都昭島市緑 町1丁目21番,,,1,,,,,
昭島市1,11-4,35.7129821,139.3506079,1,拝島中学校体育館東,,東京都昭島市緑 町2丁目2番,,,1,,,,,
昭島市1,11-5,35.7135309,139.349138,1,拝島中学校プール西,,東京都昭島市緑 町2丁目2番,,,1,,,,,
昭島市1,11-6,35.707532,139.3504656,1,栗の沢交差点,,東京都昭島市緑 町3丁目3番,,,1,,,,,
昭島市1,11-7,35.7128383,139.3495806,1,拝島中学校西門,,東京都昭島市緑 町2丁目2番,,,1,,,,,
昭島市1,11-8,35.7122255,139.3475498,1,昭島市水道部西部配水場,,東京都昭島市緑 町2丁目17番,,,1,,,,,
昭島市1,12-1,35.7056996,139.3529157,1,昭島市役所南,,東京都昭島市田中町1丁目17番,,,1,,,,,
昭島市1,12-2,35.7065368,139.3455956,1,拝島第一小学校北,,東京都昭島市拝島町1丁目14番,,,4,,,,,
昭島市1,12-3,35.7100196,139.3467404,1,下林公園,,東京都昭島市緑 町2丁目13番,,,1,,,,,
昭島市1,12-4,35.7051158,139.3462782,1,拝島公園,,東京都昭島市拝島町1丁目10番,,,4,,,,,
昭島市1,12-5,35.7031534,139.3454515,1,多摩辺中学校正門,,東京都昭島市拝島町4丁目6番,,,4,,,,,
昭島市1,12-6,35.7058181,139.3454802,1,拝島第一学童クラブ,,東京都昭島市拝島町1丁目14番,,,4,,,,,
昭島市1,12-7,35.7059849,139.3543158,1,昭島市役所,,東京都昭島市田中町1丁目17番,,,1,,,,,
昭島市1,13-1,35.7206037,139.34314,1,拝島駅南口地下自転車等駐車場,,東京都昭島市松原町5丁目2番,,,1,,,,,
昭島市1,13-2,35.7172399,139.3444807,1,拝島第三小学校北門,,東京都昭島市松原町3丁目12番,,,1,,,,,
昭島市1,13-3,35.7145165,139.3439487,1,林ノ上公園東,,東京都昭島市緑 町4丁目14番,,,1,,,,,
昭島市1,13-4,35.7159376,139.3441937,1,拝島第三小学校正門,,東京都昭島市松原町3丁目12番,,,1,,,,,
昭島市1,13-5,35.7205884,139.3426249,1,拝島駅南口駅前広場,,東京都昭島市松原町5丁目2番,,,1,,,,,
昭島市1,13-6,35.7171035,139.3409057,1,松原児童遊園,,東京都昭島市松原町5丁目9番,,,1,,,,,
昭島市1,13-7,35.7142202,139.3412382,1,小荷田児童遊園,,東京都昭島市緑 町5丁目4番,,,1,,,,,
昭島市1,14-1,35.7086821,139.3421381,1,拝島町子どもの広場,,東京都昭島市拝島町2丁目7番,,,4,,,,,
昭島市1,14-2,35.7093154,139.3430667,1,稲荷林交差点東,,東京都昭島市緑 町3丁目23番,,,1,,,,,
昭島市1,14-3,35.706971,139.3417811,1,拝島会館,,東京都昭島市拝島町2丁目4番,,,4,,,,,
昭島市1,14-4,35.7039482,139.3417461,1,拝島高等学校西,,東京都昭島市拝島町4丁目19番,,,4,,,,,
昭島市1,14-5,35.7098588,139.3394437,1,拝島天神社児童遊園,,東京都昭島市拝島町2丁目14番,,,4,,,,,
昭島市1,14-6,35.7063883,139.338455,1,旧拝島第四小学校,,東京都昭島市拝島町5丁目6番,,,4,,,,,
昭島市1,14-7,35.7060666,139.3399904,1,中宿子どもの広場,,東京都昭島市拝島町5丁目3番,,,4,,,,,
昭島市1,15-1,35.7115751,139.3351792,1,やまのかみ公園東,,東京都昭島市拝島町3丁目10番,,,4,,,,,
昭島市1,15-2,35.7139058,139.3360258,1,都営拝島町三丁目アパート12号棟北,,東京都昭島市拝島町3丁目17番,,,4,,,,,
昭島市1,15-3,35.7103404,139.3367955,1,都営拝島町三丁目アパート2号棟南,,東京都昭島市拝島町3丁目9番,,,4,,,,,
昭島市1,15-4,35.7111592,139.3339829,1,やまのかみ公園西,,東京都昭島市拝島町3丁目10番,,,4,,,,,
昭島市1,15-5,35.7117027,139.3365781,1,都営拝島町三丁目アパート第2集会室,,東京都昭島市拝島町3丁目5番,,,4,,,,,
昭島市1,15-6,35.7109132,139.3358487,1,都営拝島町三丁目アパート2号棟北,,東京都昭島市拝島町3丁目9番,,,4,,,,,
昭島市1,15-7,35.7128821,139.3344591,1,都営拝島町三丁目アパート7号棟東,,東京都昭島市拝島町3丁目11番,,,4,,,,,
昭島市3,16-1,35.7060197,139.3840918,5,東中神駅南口駅前広場,,東京都昭島市玉川町1丁目7番,,,5,,,,,
昭島市3,16-2,35.7056699,139.3835004,5,都営玉川町アパート4号棟北側公園,,東京都昭島市玉川町1丁目8番,,,5,,,,,
昭島市3,16-3,35.7062688,139.3824061,5,都営玉川町アパート1号棟西角,,東京都昭島市玉川町1丁目8番,,,5,,,,,
昭島市3,16-4,35.7069332,139.3804943,5,睦会児童遊園,,東京都昭島市玉川町2丁目2番,,,5,,,,,
昭島市3,17-1,35.7192098,139.3786586,5,武蔵野学童クラブ,,東京都昭島市武蔵野2丁目3番,,,0,,,,,
昭島市3,17-2,35.7190381,139.3742284,5,武蔵野三丁目西児童遊園,,東京都昭島市武蔵野3丁目5番,,,0,,,,,
昭島市3,17-3,35.7181892,139.3838366,5,むさしの公園,,東京都昭島市もくせいの杜2丁目2番,,,0,,,,,
昭島市3,17-4,35.7192862,139.3824735,5,武蔵野二丁目東児童遊園,,東京都昭島市武蔵野2丁目1番,,,0,,,,,
昭島市3,17-5,35.7198153,139.3807829,5,美ノ宮公園南,,東京都昭島市武蔵野2丁目4番,,,0,,,,,
昭島市3,17-6,35.7209279,139.3804154,5,美ノ宮公園北,,東京都昭島市武蔵野2丁目4番,,,0,,,,,
昭島市2,18-1,35.7132038,139.3607127,2,昭島駅南口駅前広場,,東京都昭島市昭和町2丁目4番,,,2,,,,,
昭島市1,18-2,35.7156253,139.3530351,1,松原町一丁目児童遊園,,東京都昭島市松原町1丁目24番,,,1,,,,,
昭島市2,18-3,35.7098696,139.3579887,2,日枝神社南,,東京都昭島市上川原町2丁目17番,,,2,,,,,
昭島市1,18-4,35.7144439,139.3545177,1,松原町高齢者福祉センター,,東京都昭島市松原町1丁目13番,,,1,,,,,
昭島市1,18-5,35.7130523,139.3591244,1,昭島駅南口第二自転車等駐車場,,東京都昭島市昭和町5丁目15番,,,1,,,,,
昭島市1,18-6,35.7147449,139.3554943,1,松原町一丁目中児童遊園,,東京都昭島市松原町1丁目1番,,,1,,,,,
昭島市1,18-7,35.712725,139.3577389,1,昭和会館,,東京都昭島市松原町1丁目2番,,,1,,,,,
昭島市1,18-8,35.7126517,139.3549173,1,都営松原町一丁目第2アパート,,東京都昭島市松原町1丁目9番,,,1,,,,,
昭島市1,19-1,35.6983314,139.3566139,1,田中備蓄倉庫北,,東京都昭島市田中町3丁目1番,,,4,,,,,
昭島市1,19-2,35.7020813,139.3539376,1,田中バス停留所東,,東京都昭島市田中町2丁目14番,,,4,,,,,
昭島市1,19-3,35.7008574,139.3534633,1,田中小学校北,,東京都昭島市田中町3丁目4番,,,4,,,,,
昭島市1,19-4,35.6998075,139.3538536,1,田中小学校東,,東京都昭島市田中町3丁目4番,,,4,,,,,
昭島市1,19-5,35.7002867,139.3516571,1,田中町住宅第二公園西,,東京都昭島市田中町3丁目5番,,,4,,,,,
昭島市1,19-6,35.7024496,139.3522592,1,田中町住宅第一公園北,,東京都昭島市田中町3丁目5番,,,4,,,,,
昭島市1,19-7,35.7016699,139.3502503,1,田中町三丁目児童遊園東,,東京都昭島市田中町3丁目5番,,,4,,,,,
昭島市1,19-8,35.7005808,139.3500625,1,田中町住宅第三公園北,,東京都昭島市田中町3丁目5番,,,4,,,,,
昭島市3,20-1,35.7240004,139.3762717,5,グリコ東京工場南,,東京都昭島市武蔵野2丁目14番,,,0,,,,,
昭島市3,20-2,35.7210482,139.3741965,5,武蔵野通り西,,東京都昭島市武蔵野3丁目8番,,,0,,,,,
昭島市2,20-3,35.7143998,139.3712922,2,つつじが丘公園北,,東京都昭島市つつじが丘3丁目1番,,,2,,,,,
昭島市2,20-4,35.7156649,139.3703002,2,瑞雲中学校西門,,東京都昭島市つつじが丘2丁目2番,,,2,,,,,
昭島市2,20-5,35.7145295,139.3681268,2,つつじが丘ハイツ15号棟西,,東京都昭島市つつじが丘2丁目4番,,,2,,,,,
昭島市2,20-6,35.7137943,139.3685505,2,つつじが丘ハイツ6号棟北,,東京都昭島市つつじが丘3丁目5番,,,2,,,,,
昭島市2,20-7,35.7138528,139.3665763,2,市民会館北,,東京都昭島市つつじが丘3丁目7番,,,2,,,,,
昭島市2,20-8,35.7122978,139.3657127,2,市民会館公園,,東京都昭島市つつじが丘3丁目7番,,,2,,,,,
昭島市3,20-9,35.7228302,139.3751896,5,日ノ出台公園,,東京都昭島市武蔵野2丁目10番,,,0,,,,,
福生市1,01-1,35.7390373,139.3268137,0,福生市役所前交差点付近,,東京都福生市本町５番地 福生市役所,,,,,,,,
福生市1,01-2,35.7362713,139.3244055,0,森田氏宅ブロック塀,,東京都福生市大字福生479番地,,,,,,,,
福生市1,01-3,35.7350481,139.3226807,0,田園通り側公用車置き場フェンス,,東京都福生市北田園二丁目９番地１ 福生市立中央体育館,,,,,,,,
福生市1,01-4,35.739181,139.3298275,0,ネッツトヨタ多摩社員駐車場前,,東京都福生市本町25番地4,,,,,,,,
福生市1,01-5,35.7362232,139.3305755,0,志茂公園北側（出入り口に向かって右側花壇）,,東京都福生市志茂73番地,,,,,,,,
福生市1,01-6,35.7418323,139.3312164,0,駐車場フェンス,,東京都福生市大字福生786番地１ (株)大多摩ハム小林商会,,,,,,,,
福生市1,01-7,35.7408849,139.3304092,0,スズケン福生支店フェンス,,東京都福生市本町43番地 スズケン福生支店,,,,,,,,
福生市1,01-8,35.7357736,139.3266607,0,中福生会館道路側フェンス,,東京都福生市志茂232番地,,,,,,,,
福生市1,02-1,35.7418811,139.3251284,0,新奥多摩街道沿い体育館脇フェンス,,東京都福生市大字福生1055番地 福生第一小学校,,,,,,,,
福生市1,02-2,35.7418997,139.3280761,0,福生駅西口公園植え込み,,東京都福生市大字福生773番地13,,,,,,,,
福生市1,02-3,35.7466112,139.3240834,0,加美平南公園西側（消火栓標識より右側柵）,,東京都福生市加美平三丁目10番地,,,,,,,,
福生市1,02-4,35.7492244,139.3206722,0,加美平西公園北側（フェンスを使用、警察署側寄って）,,東京都福生市加美平三丁目26番地,,,,,,,,
福生市1,02-5,35.7447801,139.3216002,0,正門脇プール更衣室横フェンス,,東京都福生市大字福生1290番地 福生第四小学校,,,,,,,,
福生市1,02-6,35.7424698,139.3199951,0,長徳寺駐車場金網フェンス,,東京都福生市大字福生618番地,,,,,,,,
福生市1,02-7,35.7461412,139.3207052,0,西側フェンス,,東京都福生市大字福生1280番地１ 福生市立わかぎり図書館,,,,,,,,
福生市1,03-1,35.7279623,139.3363388,0,野崎氏宅北側生垣根部分,,東京都福生市大字熊川762番地,,,,,,,,
福生市1,03-2,35.728394,139.3348049,0,森田氏宅新奥多摩街道寄り,,東京都福生市大字熊川769番地,,,,,,,,
福生市1,03-3,35.7263611,139.334659,0,鍋二公園金網フェンス,,東京都福生市大字熊川711番地3,,,,,,,,
福生市1,03-4,35.7252574,139.3345294,0,清水坂ゲートボール場金網フェンス,,東京都福生市大字熊川689番地35,,,,,,,,
福生市1,03-5,35.7246932,139.3368393,0,東門脇体育館付近の擁壁,,東京都福生市大字熊川623番地福生第二小学校,,,,,,,,
福生市1,03-6,35.7220196,139.3414006,0,武蔵野橋公園,,東京都福生市大字熊川1395番地８,,,,,,,,
福生市1,03-7,35.725125,139.3390703,0,野島氏宅山王橋通り側,,東京都福生市大字熊川521番地,,,,,,,,
福生市1,04-1,35.7346826,139.331201,0,牛一公園入口付近,,東京都福生市牛浜59番地２,,,,,,,,
福生市1,04-2,35.7341659,139.3325297,0,牛一会館北側町会掲示板右横フェンス,,東京都福生市牛浜82番地,,,,,,,,
福生市1,04-3,35.7360802,139.334829,0,フェンス,,東京都福生市牛浜162番地福生第三小学校,,,,,,,,
福生市1,04-4,35.7342287,139.3362299,0,福生公園西側レンガ格子フェンス,,東京都福生市牛浜163番地,,,,,,,,
福生市1,04-5,35.739225,139.3383671,0,フレンドシップパーク16号線側花壇の中,,東京都福生市大字福生2351番地,,,,,,,,
福生市1,04-6,35.7390224,139.335445,0,原ケ谷戸どんぐり公園入口左側坂上フェンス,,東京都福生市大字福生196番地７,,,,,,,,
福生市1,04-7,35.7398002,139.332149,0,親和児童遊園東側角切と入口の間のフェンス,,東京都福生市大字福生286番地,,,,,,,,
福生市1,04-8,35.7409582,139.335058,0,原ヶ谷戸児童公園フェンス,,東京都福生市大字福生２２５０番地１１,,,,,,,,
福生市1,05-1,35.7491364,139.3267367,0,西門脇左側格子フェンス,,東京都福生市加美平一丁目９番地１ 福生第六小学校,,,,,,,,
福生市1,05-2,35.7427199,139.3289195,0,西友(株)福生店駐車場ブロック上金網部分,,東京都福生市東町３番地１２,,,,,,,,
福生市1,05-3,35.747635,139.326127,0,北側植え込み,,東京都福生市加美平一丁目６番地 福生病院,,,,,,,,
福生市1,05-4,35.7459141,139.3290331,0,藤の木児童遊園西側擁壁上格子フェンス,,東京都福生市大字福生921番地,,,,,,,,
福生市1,05-5,35.7473509,139.3273433,0,東側つつじの植え込みの所,,東京都福生市加美平一丁目６番地 福生病院,,,,,,,,
福生市1,05-6,35.7455833,139.3309876,0,武蔵野台南公園南側玉垣の上格子フェンス,,東京都福生市武蔵野台二丁目９番,,,,,,,,
福生市1,05-7,35.7482504,139.3301039,0,都営武蔵野台二丁目アパート２号棟南側格子フェンス,,東京都福生市武蔵野台二丁目17番地１,,,,,,,,
福生市1,06-1,35.7171738,139.3380701,0,北門脇バス停前植え込み付近,,東京都福生市大字熊川215番地都立多摩工科高校,,,,,,,,
福生市1,06-2,35.7190521,139.3370599,0,石川氏畑町会掲示板の左隣,,東京都福生市大字熊川401番地１,,,,,,,,
福生市1,06-3,35.7197771,139.3323459,0,睦橋通り側真福寺敷地フェンス,,東京都福生市大字熊川311番地1,,,,,,,,
福生市1,06-4,35.7184873,139.3339883,0,アパート前格子フェンス,,東京都福生市大字熊川63番地12 セイバリーⅠ,,,,,,,,
福生市1,06-5,35.7180803,139.334851,0,西側,,東京都福生市大字熊川199番地１ 福生市立わかたけ図書館,,,,,,,,
福生市1,06-6,35.7159235,139.3335282,0,東側植え込みの中,,東京都福生市大字熊川95番地 熊川住宅１号棟,,,,,,,,
福生市1,06-7,35.7145081,139.3353873,0,東側植え込みの中,,東京都福生市大字熊川95番地 熊川住宅12号棟,,,,,,,,
福生市1,07-1,35.7516983,139.3258677,0,西門脇擁壁上格子フェンス,,東京都福生市加美平一丁目22番地１福生第二中学校,,,,,,,,
福生市1,07-2,35.7513176,139.3301787,0,武蔵野台第五児童遊園,,東京都福生市武蔵野台一丁目28番地1,,,,,,,,
福生市1,07-3,35.7532117,139.3242946,0,南側植え込みの中,,東京都福生市加美平四丁目１番地 加美平住宅６号棟,,,,,,,,
福生市1,07-4,35.7518433,139.3239316,0,南側掲示板横植え込みの中,,東京都福生市加美平四丁目１番地加美平住宅１号棟,,,,,,,,
福生市1,07-5,35.7514162,139.3290145,0,東京都水道局福生武蔵野台浄水所,,東京都福生市武蔵野台二丁目32番地,,,,,,,,
福生市1,07-6,35.750137,139.3234195,0,加美平北公園北側鉄パイプを利用,,東京都福生市加美平二丁目12番地,,,,,,,,
福生市1,07-7,35.7505778,139.3276897,0,加美平野球場南側交差点近くのフェンス,,東京都福生市加美平一丁目21番地,,,,,,,,
福生市1,08-1,35.73038,139.3414321,0,熊川児童館横生垣根部分,,東京都福生市大字熊川1143番地1都営熊川アパート23号棟,,,,,,,,
福生市1,08-2,35.7317967,139.3330461,0,第五市営ゲートボール場跡地,,東京都福生市大字熊川978番地,,,,,,,,
福生市1,08-3,35.7316438,139.3348401,0,熊牛公園,,東京都福生市大字熊川929番地１,,,,,,,,
福生市1,08-4,35.7298672,139.3376675,0,南側バックネット付近,,東京都福生市大字熊川845番地福生第一中学校,,,,,,,,
福生市1,08-5,35.7314393,139.3392773,0,西側芝生植え込みの中,,東京都福生市大字熊川1108番地第四市営住宅Ｂ号棟,,,,,,,,
福生市1,08-6,35.7332118,139.340537,0,前出口右側,,東京都福生市大字熊川1076番地12 福生市民会館・公民館・さくら会館駐車場,,,,,,,,
福生市1,08-7,35.7265643,139.341451,0,西側植え込み中,,東京都福生市大字熊川1315番地１ 都営熊川アパート１号棟,,,,,,,,
福生市1,09-1,35.7290761,139.330933,0,正門脇右側擁壁上フェンス,,東京都福生市南田園三丁目１番地１ 福生第三中学校,,,,,,,,
福生市1,09-2,35.7322252,139.3268154,0,正門脇左側擁壁上フェンス,,東京都福生市北田園一丁目１番地１ 福生第七小学校,,,,,,,,
福生市1,09-3,35.7301251,139.3282484,0,桜公園多摩川の堤川鉄パイプ,,東京都福生市南田園三丁目15番地,,,,,,,,
福生市1,09-4,35.7255047,139.3310874,0,東側福生団地南交差点植え込みの中,,東京都福生市南田園二丁目７番地 福生団地１号棟,,,,,,,,
福生市1,09-5,35.7240121,139.3309684,0,明神下公園東側鉄パイプ,,東京都福生市南田園一丁目12番地１,,,,,,,,
福生市1,09-6,35.7283224,139.3328495,0,富士見公園東側鉄パイプ,,東京都福生市南田園二丁目12番地,,,,,,,,
福生市1,09-7,35.721356,139.3313982,0,正門脇入口左側擁壁上格子フェンス,,東京都福生市南田園一丁目２番地２福生第五小学校,,,,,,,,
福生市1,10-1,35.7216066,139.3459878,0,遊歩道入り口植え込みの中,,東京都福生市大字熊川1663番地,,,,,,,,
福生市1,10-2,35.7214231,139.3446486,0,西武線拝島駅前ロータリー,,東京都福生市大字熊川1697番地,,,,,,,,
福生市1,10-3,35.7235528,139.3464185,0,南側植え込みの中,,東京都福生市大字熊川1640番地1 都営熊川第２アパート３号棟,,,,,,,,
福生市1,10-4,35.7242816,139.3450217,0,入口脇万年塀,,東京都福生市大字熊川1495番地 拝島自動車教習所(株),,,,,,,,
福生市1,10-5,35.7224115,139.3474897,0,遊歩道入り口植え込みの中,,東京都福生市大字熊川1667番地,,,,,,,,
福生市1,10-6,35.7220013,139.3436871,0,西武鉄道敷地,,東京都福生市大字熊川1697番地14,,,,,,,,
福生市1,10-7,35.7228729,139.349542,0,福東公園南入口左脇金網フェンス,,東京都福生市大字熊川1620番地,,,,,,,,
福生市1,11-1,35.7465435,139.3341993,0,北側町会掲示板隣植え込みの中,,東京都福生市武蔵野台一丁目８番地７福生地域体育館,,,,,,,,
福生市1,11-2,35.743885,139.3361257,0,わらつけ公園入口脇右側擁壁上フェンス,,東京都福生市大字福生2151番地12,,,,,,,,
福生市1,11-3,35.7444987,139.3342454,0,入口脇植え込みの中,,東京都福生市大字福生2125番地３ 福生市保健センター,,,,,,,,
福生市1,11-4,35.7486783,139.3376754,0,目白第二病院,,東京都福生市大字福生1980番地,,,,,,,,
福生市1,11-5,35.7458451,139.3356884,0,東福生駅西口前ロータリー際植え込みの中,,東京都福生市武蔵野台一丁目１番地,,,,,,,,
福生市1,11-6,35.7472068,139.3328185,0,武蔵野台東公園西側植え込みの中,,東京都福生市武蔵野台一丁目14番地,,,,,,,,
福生市1,11-7,35.7500137,139.3321924,0,日本畜電器工業 潟Oランド北側金網フェンス,,東京都福生市武蔵野台一丁目23番地１,,,,,,,,
羽村市1,01-1,35.7523006,139.3069315,2,清流地区備蓄物資設置用地南側,,東京都羽村市羽７４１−３７,,羽村市,1-1,35.752198,139.307062,清流地区備蓄物資設置用地南側,,東京都羽村市羽７４１−３７
羽村市1,01-2,35.751269,139.3136056,2,上水通り町内会運動広場,,東京都羽村市玉川２−８,,羽村市,1-2,35.7511245,139.3135532,上水通り町内会運動広場,,東京都羽村市玉川２−８
羽村市1,01-3,35.7522558,139.3160196,2,平井 宅,,東京都羽村市川崎４−３−３１,,羽村市,1-3,35.75228,139.316054,平井 宅,,東京都羽村市川崎４−３−３１
羽村市1,01-4,35.7537309,139.3167409,2,ひのきの子児童遊園,,東京都羽村市川崎１−８,,羽村市,1-4,35.753861,139.316674,ひのきの子児童遊園,,東京都羽村市川崎１−８
羽村市1,01-5,35.7545537,139.3138406,2,羽村東小学校前,,東京都羽村市羽東２−１８−１,,羽村市,1-5,35.754636,139.313697,羽村東小学校前,,東京都羽村市羽東２−１８−１
羽村市1,01-6,35.7588377,139.3144808,2,本町ふれあい公園跡,,東京都羽村市羽東１−５,,羽村市,1-6,35.7588601,139.3144909,本町ふれあい公園跡,,東京都羽村市羽東１−５
羽村市1,01-7,35.7561586,139.3113572,2,中里 宅,,東京都羽村市羽東３−１２−１５,,羽村市,1-7,35.756144,139.311274,中里 宅,,東京都羽村市羽東３−１２−１５
羽村市1,01-8,35.7590364,139.3120943,2,本町一広場,,東京都羽村市羽東１−２１,,羽村市,1-8,35.758996,139.312098,本町一広場,,東京都羽村市羽東１−２１
羽村市1,02-1,35.7565,139.3080197,2,観光駐車場,,東京都羽村市羽中４ー４８３－１,,羽村市,2-1,35.756757,139.308018,観光駐車場,,東京都羽村市羽中４ー４８３－１
羽村市1,02-2,35.7599565,139.309253,2,稲荷緑地北側,,東京都羽村市羽東２−６０−１,,羽村市,2-2,35.7602186,139.3093997,稲荷緑地北側,,東京都羽村市羽東２−６０−１
羽村市1,02-3,35.7611281,139.3075241,2,羽村第一中学校南側,,東京都羽村市羽中３−６−３３,,羽村市,2-3,35.7613419,139.3070636,羽村第一中学校南側,,東京都羽村市羽中３−６−３３
羽村市1,02-4,35.7619742,139.3082416,2,羽村第一中学校北側,,東京都羽村市羽中３−６−３３,,羽村市,2-4,35.7618216,139.3084905,羽村第一中学校北側,,東京都羽村市羽中３−６−３３
羽村市1,02-5,35.7641101,139.3084631,2,なかよし児童遊園前,,東京都羽村市羽中２−７,,羽村市,2-5,35.764055,139.308327,なかよし児童遊園前,,東京都羽村市羽中２−７
羽村市1,02-6,35.7633862,139.3115104,2,旭ヶ丘公園,,東京都羽村市羽東１−３５,,羽村市,2-6,35.76307,139.311167,旭ヶ丘公園,,東京都羽村市羽東１−３５
羽村市1,02-7,35.7584712,139.3016299,2,桜づつみ公園,,東京都羽村市羽中４−９先,,羽村市,2-7,35.75838,139.30234,桜づつみ公園,,東京都羽村市羽中４−９先
羽村市1,03-1,35.7599214,139.2995131,2,いこいの里,,東京都羽村市羽加美４−１８－６,,羽村市,3-1,35.761669,139.300927,いこいの里,,東京都羽村市羽加美４−１８－６
羽村市1,03-2,35.7652595,139.3052356,2,間坂コミュニティ公園,,東京都羽村市羽中２−１６,,羽村市,3-2,35.765245,139.305105,間坂コミュニティ公園,,東京都羽村市羽中２−１６
羽村市1,03-4,35.7668162,139.3021777,2,畑,,東京都羽村市羽加美２−８,,羽村市,3-3,35.767952,139.306705,羽村市スポーツセンター,,東京都羽村市羽加美１−２９−５
羽村市1,03-5,35.7651578,139.3003591,2,羽村西小学校,,東京都羽村市羽加美４−２−９,,羽村市,3-4,35.766926,139.302172,2,畑,
羽村市1,03-6,35.7681849,139.3002344,2,美原会館,,東京都羽村市羽西１−２０−６,,羽村市,3-5,35.765254,139.30032,2,羽村西小学校,
羽村市1,03-7,35.7699367,139.3024071,2,グリーントリム公園,,東京都羽村市羽西１−２,,羽村市,3-6,35.76827,139.300237,2,美原会館,
羽村市1,04-1,35.7721808,139.2982981,2,下田 宅,,東京都羽村市羽西１−１３−５２,,羽村市,3-7,35.769887,139.302198,2,グリーントリム公園,
羽村市1,04-2,35.7739419,139.2944426,2,こやけ児童公園北側,,東京都羽村市羽西３−１１,,羽村市,4-1,35.772008,139.297939,2,下田 宅,
羽村市1,04-3,35.7747038,139.3028175,2,さくら児童公園北側,,東京都羽村市小作台５−１４,,羽村市,4-2,35.7739,139.294526,2,こやけ児童公園北側,
羽村市1,04-4,35.7740017,139.2990951,2,小作台小学校北側,,東京都羽村市小作台４−１３−１,,羽村市,4-3,35.774788,139.302711,2,さくら児童公園北側,
羽村市1,04-5,35.776589,139.2984669,2,くすのき児童公園東側,,東京都羽村市小作台３−１１,,羽村市,4-4,35.773895,139.299189,2,小作台小学校北側,
羽村市1,04-6,35.7784,139.3000364,2,けやき児童公園東側,,東京都羽村市小作台２−１４,,羽村市,4-5,35.776595,139.298432,2,くすのき児童公園東側,
羽村市1,04-7,35.7766083,139.3021407,2,ＪＲ小作駅前広場,,東京都羽村市小作台１−３１,,羽村市,4-6,35.778278,139.29992,2,けやき児童公園東側,
羽村市1,04-8,35.7725857,139.3035858,2,あかしあ児童公園,,東京都羽村市小作台５−２７,,羽村市,4-7,35.776639,139.302365,2,ＪＲ小作駅前広場,
羽村市2,05-1,35.7761555,139.3055962,1,市道第１０３７号線分離帯,,東京都羽村市栄町１−１６,,羽村市,4-8,35.77257,139.303481,2,あかしあ児童公園,
羽村市2,05-2,35.7733419,139.305022,1,栄会館,,東京都羽村市栄町１−１４−１４,,羽村市,5-1,35.7761,139.305414,1,市道第１０３７号線分離帯,
羽村市2,05-3,35.774391,139.3104968,1,武蔵野公園西側,,東京都羽村市栄町２−５,,羽村市,5-2,35.773377,139.305022,1,栄会館,
羽村市2,05-4,35.7731158,139.310368,1,武蔵野公園東側,,東京都羽村市栄町２−５,,羽村市,5-3,35.774256,139.309984,1,武蔵野公園西側,
羽村市2,05-5,35.7722171,139.3123467,1,栄小学校西側,,東京都羽村市栄町２−１７,,羽村市,5-4,35.773171,139.310619,1,武蔵野公園東側,
羽村市2,05-6,35.7701721,139.3134017,1,羽村市福祉センター前,,東京都羽村市栄町２−１８−１,,羽村市,5-5,35.772203,139.312111,1,栄小学校西側,
羽村市2,05-7,35.7715195,139.3071541,1,さかえ児童遊園,,東京都羽村市栄町２−１,,羽村市,5-6,35.770011,139.313178,1,羽村市福祉センター前,
羽村市2,06-1,35.76513,139.3151642,1,緑ヶ丘会館,,東京都羽村市緑ヶ丘１−９−１６,,羽村市,5-7,35.771631,139.307237,1,さかえ児童遊園,
羽村市2,06-2,35.7694319,139.3162332,1,富士見公園駐車場,,東京都羽村市緑ヶ丘４−８,,羽村市,6-1,35.765183,139.315312,1,緑ヶ丘会館,
羽村市2,06-3,35.7684569,139.3169413,1,富士見公園東側,,東京都羽村市緑ヶ丘４−１１,,羽村市,6-2,35.7693645,139.3162245,1,富士見公園駐車場,
羽村市2,06-4,35.7684047,139.3147794,1,富士見公園西側,,東京都羽村市緑ヶ丘４−１１,,羽村市,6-3,35.767625,139.317454,1,富士見公園東側,
羽村市2,06-5,35.7688977,139.3117451,1,羽村市保健センター前,,東京都羽村市緑ヶ丘５−５,,羽村市,6-4,35.768247,139.314331,1,富士見公園西側,
羽村市2,06-6,35.7673585,139.3114804,1,羽村市役所前,,東京都羽村市緑ヶ丘５−２−１,,羽村市,6-5,35.769022,139.311913,1,羽村市保健センター前,
羽村市2,06-7,35.7653306,139.3109756,1,ペリカン児童公園南側,,東京都羽村市緑ヶ丘５−１４,,羽村市,6-6,35.767241,139.311402,1,羽村市役所前,
羽村市2,07-1,35.7646695,139.3197594,1,水道事務所前,,東京都羽村市緑ヶ丘２−１８−５,,羽村市,6-7,35.765314,139.310985,1,ペリカン児童公園南側,
羽村市2,07-2,35.7637553,139.3168401,1,産業福祉センター,,東京都羽村市緑ヶ丘２−１１−１,,羽村市,7-1,35.764489,139.319492,1,水道事務所前,
羽村市2,07-3,35.7624938,139.3169268,1,富士見小学校西側,,東京都羽村市五ノ神４−９−５,,羽村市,7-2,35.763818,139.316762,1,産業福祉センター,
羽村市2,07-4,35.7613401,139.3148719,1,羽村駅東口第２自転車駐車場,,東京都羽村市緑ヶ丘１−２１,,羽村市,7-3,35.762504,139.316887,1,富士見小学校西側,
羽村市2,07-5,35.7585694,139.3166825,1,五ノ神会館,,東京都羽村市五ノ神１−１−３,,羽村市,7-4,35.761161,139.31463,1,羽村駅東口第２自転車駐車場,
羽村市2,07-6,35.7602745,139.3199505,1,こんぴら山児童公園,,東京都羽村市五ノ神２−７,,羽村市,7-5,35.758537,139.316737,1,五ノ神会館,
羽村市2,07-7,35.7601396,139.3223125,1,畑,,東京都羽村市五ノ神２−１１−１,,羽村市,7-6,35.760405,139.32,1,こんぴら山児童公園,
羽村市2,08-1,35.7638082,139.3239907,1,やまぶき児童公園西側,,東京都羽村市富士見平２−４,,羽村市,7-7,35.760203,139.322345,1,畑,
羽村市2,08-2,35.7644973,139.3251454,1,羽村第二中学校東側,,東京都羽村市富士見平１−１６,,羽村市,8-1,35.763659,139.323687,1,やまぶき児童公園西側,
羽村市2,08-3,35.7659048,139.3258652,1,羽村団地 ３号棟前,,東京都羽村市富士見平１−１８,,羽村市,8-2,35.764534,139.325259,1,羽村第二中学校東側,
羽村市2,08-4,35.7642362,139.3264915,1,羽村団地１８号棟前,,東京都羽村市富士見平２−９,,羽村市,8-3,35.766057,139.326046,1,羽村団地 ３号棟前,
羽村市2,08-5,35.762136,139.3252282,1,あさひ緑地公園,,東京都羽村市富士見平２−１９,,羽村市,8-4,35.764276,139.326429,1,羽村団地１８号棟前,
羽村市2,08-6,35.766036,139.3294049,1,動物公園南側,,東京都羽村市富士見平３−４−１,,羽村市,8-5,35.762425,139.324992,1,あさひ緑地公園,
羽村市2,08-7,35.7682515,139.3283266,1,動物公園西側,,東京都羽村市富士見平３−４−１,,羽村市,8-6,35.765693,139.328948,1,動物公園南側,
羽村市2,09-1,35.7567439,139.3331448,1,双葉町公園,,東京都羽村市双葉町２−７,,羽村市,8-7,35.768079,139.327769,1,動物公園西側,
羽村市2,09-2,35.7556714,139.3290525,1,第二学校給食センター,,東京都羽村市神明台４−６−８,,羽村市,9-1,35.756762,139.333131,1,双葉町公園,
羽村市2,09-3,35.7593439,139.3279049,1,あさひ公園南側,,東京都羽村市神明台３−３１,,羽村市,9-2,35.755748,139.329169,1,第二学校給食センター,
羽村市2,09-4,35.7611224,139.325775,1,あさひ緑地公園,,東京都羽村市神明台３−２,,羽村市,9-3,35.7594315,139.3281715,1,あさひ公園南側,
羽村市2,09-5,35.7622421,139.3302701,1,松原児童公園南側,,東京都羽村市神明台３−１１,,羽村市,9-4,35.761275,139.325524,1,あさひ緑地公園,
羽村市2,09-6,35.7607703,139.3322899,1,武蔵野小学校南側,,東京都羽村市川崎６９３−１,,羽村市,9-5,35.76226,139.330298,1,松原児童公園南側,
羽村市2,09-7,35.7597109,139.3331727,1,あおぞら児童遊園前,,東京都羽村市双葉町２−１４,,羽村市,9-6,35.760908,139.332688,1,武蔵野小学校南側,
羽村市2,09-8,35.7599517,139.3268038,1,あさひ公園北側,,東京都羽村市神明台３−３１,,羽村市,9-7,35.759627,139.333217,1,あおぞら児童遊園前,
羽村市2,10-1,35.7583851,139.3208267,1,水木公園北側,,東京都羽村市神明台２−１−４,,羽村市,9-8,35.759878,139.326566,1,あさひ公園北側,
羽村市2,10-2,35.7567508,139.3211998,1,神明台公園北側,,東京都羽村市神明台１−１９,,羽村市,10-1,35.75864,139.320636,1,水木公園北側,
羽村市2,10-3,35.7549172,139.3258377,1,水木公園東側,,東京都羽村市神明台２−７,,羽村市,10-2,35.756951,139.320912,1,神明台公園北側,
羽村市2,10-4,35.7539614,139.3223424,1,神明東児童公園南側,,東京都羽村市神明台１−３８−１,,羽村市,10-3,35.754886,139.325806,1,水木公園東側,
羽村市2,10-5,35.7546199,139.3201041,1,神明児童公園東側,,東京都羽村市神明台１−１６−７,,羽村市,10-4,35.753866,139.322448,1,神明東児童公園南側,
羽村市2,10-6,35.7555203,139.3209194,1,神明台会館,,東京都羽村市神明台１−１７−４,,羽村市,10-5,35.754625,139.320053,1,神明児童公園東側,
羽村市2,10-7,35.7564363,139.3206044,1,神明台公園南側,,東京都羽村市神明台１−１９,,羽村市,10-6,35.755612,139.321045,1,神明台会館,
羽村市2,03-3,35.7677131,139.3069308,1,羽村市スポーツセンター,,東京都羽村市羽加美１−２９−５,,羽村市,10-7,35.75642,139.320724,1,神明台公園南側,
日の出町1,1-1,35.7427424,139.2707817,4,千石橋北側,,日の出町大字平井4060番地,,,,,,,,
日の出町1,1-2,35.73694355,139.2723385,4,三吉野桜木５号緑地（三吉野桜木中央公園北側）,,日の出町大字平井256番地,,,,,,,,
日の出町1,1-3,35.7405058,139.2673694,4,須田様宅ブロック,,日の出町大字平井1293番地,,,,,,,,
日の出町1,1-4,35.7397271,139.2659913,4,北島様宅前,,日の出町大字平井1332番地,,,,,,,,
日の出町1,1-5,35.7380554,139.2620829,4,早川栄一様宅横,,日の出町大字平井1850番15号,,,,,,,,
日の出町1,1-6,35.7336958,139.2661878,4,木住野様宅南側,,日の出町大字平井1589番地,,,,,,,,
日の出町1,1-7,35.7343354,139.2709105,4,亜細亜大学日の出ｷｬﾝﾊﾟｽ駐車場,,日の出町大字平井1450番地,,,,,,,,
日の出町1,2-1,35.7420577,139.2644088,4,宝光保育園前歩道柵,,日の出町大字平井3388番地2,,,,,,,,
日の出町1,2-2,35.7424881,139.2577757,4,日の出町保健センター前,,日の出町大字平井2780番地,,,,,,,,
日の出町1,2-3,35.7429888,139.2519436,4,ひのでバス折返場東側,,日の出町大字大久野83番1号,,,,,,,,
日の出町1,2-4,35.7441602,139.2457445,4,諏訪下町営住宅前,,日の出町大字大久野288番15号,,,,,,,,
日の出町1,2-5,35.7398376,139.2545847,4,木住野健二様宅北側ブロック,,日の出町大字平井2317番地,,,,,,,,
日の出町1,2-6,35.7390748,139.2569392,4,木住野様宅ブロック,,日の出町大字平井2116番地,,,,,,,,
日の出町1,2-7,35.7366402,139.2584603,4,石川守様宅前,,日の出町大字平井2052番1号,,,,,,,,
日の出町1,3-1,35.7439285,139.2437182,4,諏訪下橋北側,,日の出町大字大久野876番4号先,,,,,,,,
日の出町1,3-2,35.7432485,139.2404168,4,濵中益子様宅ブロック,,日の出町大字大久野973番地5号,,,,,,,,
日の出町1,3-3,35.7428684,139.2369498,4,羽生文右衛門商店前,,日の出町大字大久野1220番3号,,,,,,,,
日の出町1,3-4,35.742094,139.2296437,4,日の出町立大久野中学校前,,日の出町大字大久野1559番,,,,,,,,
日の出町1,3-5,35.7454009,139.2359414,4,やまびこホール駐車場,,日の出町大字大久野1165番地2,,,,,,,,
日の出町1,3-6,35.7437729,139.228081,4,大久野老人福祉センター西側,,日の出町大字大久野2120番4号,,,,,,,,
日の出町1,4-1,35.749652,139.2277097,4,みのわ酒店北側,,日の出町大字大久野2767番2号,,,,,,,,
日の出町1,4-2,35.7580685,139.2160918,4,大坂豊様宅前,,日の出町大字大久野3390番地,,,,,,,,
日の出町1,4-3,35.7621354,139.2142236,4,西細尾バス停東側,,日の出町大字大久野3590番1号,,,,,,,,
日の出町1,4-4,35.7655045,139.2083094,4,青木茂様宅前,,日の出町大字大久野4050番1号,,,,,,,,
日の出町1,4-5,35.7704579,139.2054538,4,ひので肝要の里前,,日の出町大字大久野4089番,,,,,,,,
日の出町1,4-6,35.7724664,139.2049414,4,報徳会館前,,日の出町大字大久野4310番地,,,,,,,,
日の出町1,4-7,35.7750797,139.1957603,4,松尾バス停横,,日の出町大字大久野4593番地,,,,,,,,
日の出町1,5-1,35.7466722,139.2511308,4,橋本昌様宅西側河川歩道柵,,日の出町大字大久野8681番地2,,,,,,,,
日の出町1,5-2,35.7521959,139.2486236,4,玉の内ゲートボール場向かい歩道,,日の出町大字大久野8199番地5,,,,,,,,
日の出町1,5-3,35.7541778,139.2423412,4,旧坂本クラブ前,,日の出町大字大久野7270番地,,,,,,,,
日の出町1,5-4,35.7518814,139.2413751,4,石田憲男様宅前ガードレール,,日の出町大字大久野7116番ﾛ号,,,,,,,,
日の出町1,5-5,35.7483427,139.2411327,4,高尾様宅前,,日の出町大字大久野713番2号,,,,,,,,
日の出町1,5-6,35.7558598,139.236257,4,水口会館前,,日の出町大字大久野6596番地3,,,,,,,,
日の出町1,5-7,35.7590469,139.2324868,4,下野光久様宅横,,日の出町大字大久野5759番地1,,,,,,,,
日の出町1,6-1,35.7379889,139.2533125,4,日の出団地多目的施設,,日の出町大字平井2196番地628,,,,,,,,
日の出町1,6-2,35.7373529,139.2494704,4,日の出団地中央公園,,日の出町大字平井2196ー636,,,,,,,,
日の出町1,6-3,35.738913,139.2501397,4,小松英雄様宅前土手,,日の出町大字平井2196番地2,,,,,,,,
日の出町1,7-1,35.7440692,139.2761421,4,折原精密東側,,日の出町大字平井3978番1号,,,,,,,,
日の出町1,7-2,35.7429556,139.2752591,4,第２７自治会館前,,日の出町大字平井760番9号,,,,,,,,
日の出町1,7-3,35.7409493,139.2791728,4,下平井会館前,,日の出町大字平井１番地5号,,,,,,,,
日の出町1,7-4,35.7410071,139.2750346,4,三吉野会館前,,日の出町大字平井896番1号,,,,,,,,
日の出町1,7-5,35.7394441,139.2770219,4,上野正男様宅北側ブロック,,日の出町大字平井714番1号,,,,,,,,
日の出町1,7-6,35.7377675,139.2775015,4,三吉野桜木調整池北,,日の出町大字平井217番地1,,,,,,,,
奥多摩町,01-1,35.813815,139.1637679,4,川井駅入口ガードレール,,東京都西多摩郡奥多摩町川井288-14,,,,,,,,
奥多摩町,01-2,35.8125032,139.1659987,4,川井駐在所横ガードレール,,東京都西多摩郡奥多摩町川井160-3,,,,,,,,
奥多摩町,01-3,35.8099133,139.1603375,4,八雲神社下石垣,,東京都西多摩郡奥多摩町川井713,,,,,,,,
奥多摩町,01-4,35.809952,139.1667152,4,師岡建材横石垣前ガードレール,,東京都西多摩郡奥多摩町梅沢159,,,,,,,,
奥多摩町,01-5,35.8079053,139.1673639,4,梅沢ゲートボール場フェンス,,東京都西多摩郡奥多摩町梅沢93,,,,,,,,
奥多摩町,02-6,35.8365931,139.1615727,4,西東京バス上日向停留所横石垣上,,東京都西多摩郡奥多摩町大丹波647-1,,,,,,,,
奥多摩町,02-7,35.8307874,139.1634933,4,北川橋手前左町道300m先木宮氏宅石垣,,東京都西多摩郡奥多摩町大丹波346,,,,,,,,
奥多摩町,02-8,35.8275416,139.1644637,4,大丹波川国際虹鱒釣場第２駐車場フェンス,,東京都西多摩郡奥多摩町大丹波166-1,,,,,,,,
奥多摩町,03-9,35.8140531,139.1422384,4,寸庭小山建設手前ガードレール,,東京都西多摩郡奥多摩町小丹波837,,,,,,,,
奥多摩町,03-10,35.8144259,139.1460444,4,小丹波上集会所フェンス,,東京都西多摩郡奥多摩町小丹波279-6,,,,,,,,
奥多摩町,03-11,35.8153545,139.1495014,4,文化会館正面玄関前石垣,,東京都西多摩郡奥多摩町小丹波82,,,,,,,,
奥多摩町,03-12,35.8174696,139.1515048,4,小丹波旧生活館横空地,,東京都西多摩郡奥多摩町小丹波472-2,,,,,,,,
奥多摩町,03-13,35.8157465,139.1518844,4,古里駅前原島氏宅塀,,東京都西多摩郡奥多摩町小丹波498,,,,,,,,
奥多摩町,03-14,35.8127448,139.1534743,4,万世橋手前間野田氏宅前,,東京都西多摩郡奥多摩町丹三郎309,,,,,,,,
奥多摩町,03-15,35.8086845,139.1572141,4,丹三郎生活館入口,,東京都西多摩郡奥多摩町丹三郎143,,,,,,,,
奥多摩町,04-16,35.8146344,139.1278759,4,鳩の巣駐車場入口手摺,,東京都西多摩郡奥多摩町棚沢407-1,,,,,,,,
奥多摩町,04-17,35.8150664,139.1290158,4,鳩の巣駅横フェンス,,東京都西多摩郡奥多摩町棚沢390,,,,,,,,
奥多摩町,04-18,35.8151176,139.1282138,4,棚沢コミュニティセンター前手摺,,東京都西多摩郡奥多摩町棚沢409,,,,,,,,
奥多摩町,04-19,35.8138053,139.1303901,4,雲仙橋坂下側先ガードレール,,東京都西多摩郡奥多摩町棚沢736,,,,,,,,
奥多摩町,04-20,35.8136906,139.1345354,4,多摩川南岸道路入口将門交差点下歩道,,東京都西多摩郡奥多摩町棚沢104,,,,,,,,
奥多摩町,05-21,35.8118723,139.1138146,4,白丸生活館前,,東京都西多摩郡奥多摩町白丸72-6,,,,,,,,
奥多摩町,05-22,35.8121083,139.1148035,4,白丸駅踏切ガードレール,,東京都西多摩郡奥多摩町白丸64-3,,,,,,,,
奥多摩町,05-23,35.8114187,139.1153782,4,消防団第２分団白丸詰所前フェンス,,東京都西多摩郡奥多摩町白丸51,,,,,,,,
奥多摩町,06-24,35.8017807,139.1078313,4,西東京バス神庭停留所手前村木氏宅前,,東京都西多摩郡奥多摩町海沢832-5,,,,,,,,
奥多摩町,06-25,35.8017729,139.1113889,4,海沢自治会館前,,東京都西多摩郡奥多摩町海沢779,,,,,,,,
奥多摩町,06-26,35.7997609,139.112504,4,二幸屋向かい桶川氏宅前塀,,東京都西多摩郡奥多摩町海沢699,,,,,,,,
奥多摩町,06-27,35.8006738,139.1157955,4,老人ホ－ム寿楽荘入口,,東京都西多摩郡奥多摩町海沢497-21,,,,,,,,
奥多摩町,07-28,35.8088541,139.0966605,4,観光案内所,,東京都西多摩郡奥多摩町氷川210,,,,,,,,
奥多摩町,07-29,35.808505,139.0975354,4,福祉会館入口ガードパイプ,,東京都西多摩郡奥多摩町氷川171,,,,,,,,
奥多摩町,07-30,35.8081135,139.0956185,4,荒沢屋前ガードレール,,東京都西多摩郡奥多摩町氷川1446,,,,,,,,
奥多摩町,07-31,35.8070854,139.0984158,4,氷川キャンプ場入口ガードパイプ,,東京都西多摩郡奥多摩町氷川702,,,,,,,,
奥多摩町,07-32,35.80625,139.095011,4,氷川保育園向かい町道入口ガードパイプ,,東京都西多摩郡奥多摩町氷川1389,,,,,,,,
奥多摩町,07-33,35.804129,139.0927332,4,奥多摩消防署向かいフェンス,,東京都西多摩郡奥多摩町氷川951,,,,,,,,
奥多摩町,07-34,35.8007435,139.0886101,4,奥多摩病院入口よう壁,,東京都西多摩郡奥多摩町氷川1111,,,,,,,,
奥多摩町,07-35,35.8106318,139.095102,4,北氷川橋（栃久保側）つきあたり石垣,,東京都西多摩郡奥多摩町氷川1772,,,,,,,,
奥多摩町,07-36,35.8119897,139.0948522,4,旧太田屋旅館駐車場石垣,,東京都西多摩郡奥多摩町氷川1781,,,,,,,,
奥多摩町,07-37,35.8024183,139.1065921,4,日向地区入口横石垣,,東京都西多摩郡奥多摩町氷川51,,,,,,,,
奥多摩町,07-38,35.8244877,139.0769504,4,大沢国際鱒釣場入口ガードレール,,東京都西多摩郡奥多摩町氷川2244,,,,,,,,
奥多摩町,07-39,35.8270085,139.0734869,4,大沢生活改善センター入口石垣,,東京都西多摩郡奥多摩町日原198-ﾛ,,,,,,,,
奥多摩町,08-40,35.8417394,139.0452686,4,旧日原小学校入口ガードレール,,東京都西多摩郡奥多摩町日原636,,,,,,,,
奥多摩町,08-41,35.8413238,139.0397317,4,西東京バス中日原停留所先ガードレール,,東京都西多摩郡奥多摩町日原885,,,,,,,,
奥多摩町,09-42,35.7996734,139.0846282,4,境生活館前空地,,東京都西多摩郡奥多摩町境12-2,,,,,,,,
奥多摩町,09-43,35.7988898,139.077773,4,境集会所入口ガードレール,,東京都西多摩郡奥多摩町境380,,,,,,,,
奥多摩町,09-44,35.7943292,139.057123,4,中山生活館前フェンス,,東京都西多摩郡奥多摩町境871,,,,,,,,
奥多摩町,09-45,35.7942954,139.0465631,4,水根地区入口ガードレール,,東京都西多摩郡奥多摩町境1190,,,,,,,,
奥多摩町,10-46,35.7943008,139.0039665,4,峰谷生活館前ガードレール,,東京都西多摩郡奥多摩町川野529-1,,,,,,,,
奥多摩町,10-47,35.7842644,139.041783,4,西東京バス熱海停留所石垣,,東京都西多摩郡奥多摩町原258,,,,,,,,
奥多摩町,10-48,35.7801477,139.0161099,4,奥多摩町役場旧小河内出張所,,東京都西多摩郡奥多摩町留浦1200,,,,,,,,
奥多摩町,10-49,35.7771349,139.0027138,4,美山亭横よう壁,,東京都西多摩郡奥多摩町川野292,,,,,,,,
奥多摩町,10-50,35.7775906,138.9906014,4,島勝商店前ガードロープ,,東京都西多摩郡奥多摩町留浦617-7,,,,,,,,
あきる野市,01-1,35.7237812,139.3059481,5,東秋留小学校前フェンス,,東京都あきる野市野辺１１２３,,,,,,,,
あきる野市,01-2,35.7251198,139.3106926,5,東秋留駅南口駐輪場フェンス,,東京都あきる野市野辺４６６－１,,,,,,,,
あきる野市,01-3,35.7230598,139.3135679,5,野辺地区会館フェンス,,東京都あきる野市野辺１２６,,,,,,,,
あきる野市,01-4,35.7220767,139.3078423,5,焼肉まつざか東側交差点フェンス,,東京都あきる野市野辺９６９－３,,,,,,,,
あきる野市,01-5,35.7261246,139.3107799,5,東秋留駅北口西側市駐輪場,,東京都あきる野市野辺４４７－１５,,,,,,,,
あきる野市,01-6,35.7212174,139.3091114,5,落合坂せせらぎ通り鈴木様方東側畑,,東京都あきる野市野辺６８３－１,,,,,,,,
あきる野市,01-7,35.7226642,139.3051591,5,日室塚バス停東側,,東京都あきる野市野辺１０１０－２,,,,,,,,
あきる野市,01-8,35.7246688,139.315412,5,前田公園西側,,東京都あきる野市野辺６０－１,,,,,,,,
あきる野市,02-1,35.7268107,139.3158959,5,中島屋北側駐車場,,東京都あきる野市二宮１２６５－１,,,,,,,,
あきる野市,02-2,35.7265539,139.3142371,5,二宮神社御池前,,東京都あきる野市二宮１１８８－１,,,,,,,,
あきる野市,02-3,35.7293929,139.3166495,5,高木 様宅北側垣根際,,東京都あきる野市二宮２３４１,,,,,,,,
あきる野市,02-4,35.7328284,139.3113689,5,八幡神社北側道路,,東京都あきる野市平沢６２１－１,,,,,,,,
あきる野市,02-5,35.7258832,139.3186413,5,昭和橋西側フェンス,,東京都あきる野市二宮２１９８-３,,,,,,,,
あきる野市,02-6,35.7338425,139.3054359,5,秋川病院坂上交差点南側畑,,東京都あきる野市平沢２３１,,,,,,,,
あきる野市,02-7,35.7288497,139.3086914,5,ＪＡあきがわ経済センターマイム前植込み,,東京都あきる野市二宮８１８－１,,,,,,,,
あきる野市,03-1,35.7383329,139.303426,5,小林 様北側フェンス,,東京都あきる野市草花３２６６,,,,,,,,
あきる野市,03-2,35.7413565,139.3059308,5,いなげやあきる野草花店東側道路際,,東京都あきる野市草花１５６７－１,,,,,,,,
あきる野市,03-3,35.7469683,139.3058593,5,草花パークハイツ南入口,,東京都あきる野市草花２３９０,,,,,,,,
あきる野市,03-4,35.7424329,139.2997262,5,多西小学校裏フェンス,,東京都あきる野市草花２８８５,,,,,,,,
あきる野市,03-5,35.7432223,139.2960958,5,前田 様宅前,,東京都あきる野市草花２６７1－１,,,,,,,,
あきる野市,03-6,35.7390825,139.3002897,5,御堂会館北側フェンス,,東京都あきる野市草花３４８２－１６,,,,,,,,
あきる野市,03-7,35.7356011,139.2984047,5,田中 様宅東側畑,,東京都あきる野市原小宮1－13－19,,,,,,,,
あきる野市,03-8,35.7337659,139.3023381,5,森ノ根公園南側フェンス,,東京都あきる野市原小宮2－8－7,,,,,,,,
あきる野市,04-1,35.7422339,139.2836233,5,尾崎会館前畑,,東京都あきる野市菅生２７２,,,,,,,,
あきる野市,04-2,35.7438935,139.2897605,5,菅生交流会館入口フェンス,,東京都あきる野市菅生５８２,,,,,,,,
あきる野市,04-3,35.7518297,139.2892291,5,追分橋国道側ガードレール,,東京都あきる野市菅生１２５６－２,,,,,,,,
あきる野市,04-4,35.7542362,139.2882764,5,菅生会館フェンス,,東京都あきる野市菅生１３３８－１,,,,,,,,
あきる野市,05-1,35.7234488,139.2773063,5,若葉児童館入口際,,東京都あきる野市上代継３０４－１,,,,,,,,
あきる野市,05-2,35.7251908,139.2760731,5,薬師坂下スーパーオザム西側フェンス,,東京都あきる野市上代継２５２－１6,,,,,,,,
あきる野市,05-3,35.7258343,139.274587,5,渕上郵便局東,,東京都あきる野市渕上１８６－３,,,,,,,,
あきる野市,05-4,35.7277952,139.2828607,5,マサル設計事務所前植込み,,東京都あきる野市下代継１２０－５,,,,,,,,
あきる野市,05-5,35.7224593,139.2725254,5,出雲神社境内南道路際,,東京都あきる野市渕上３１１－１,,,,,,,,
あきる野市,05-6,35.7229774,139.2759135,5,西秋留小学校前フェンス,,東京都あきる野市上代継２９２,,,,,,,,
あきる野市,05-7,35.7207118,139.2802222,5,中山 様宅前道路際,,東京都あきる野市下代継３９０－１,,,,,,,,
あきる野市,06-1,35.7278417,139.2865642,5,秋川駅南口前,,東京都あきる野市油平５７－２,,,,,,,,
あきる野市,06-2,35.7264494,139.2837528,5,比丘尼山交差点北歩道植込,,東京都あきる野市油平３－２,,,,,,,,
あきる野市,06-3,35.7269532,139.2869119,5,秋川駅前運動広場西南角,,東京都あきる野市油平９２－７,,,,,,,,
あきる野市,06-4,35.7228796,139.2868023,5,瀬沼商店北側道路際,,東京都あきる野市油平２４８,,,,,,,,
あきる野市,06-5,35.7205502,139.290052,5,西側フェンス（坂本様宅）,,東京都あきる野市牛沼２０３－１,,,,,,,,
あきる野市,06-6,35.7193018,139.2859856,5,中村 様宅北側国道際,,東京都あきる野市牛沼９９－５,,,,,,,,
あきる野市,07-1,35.7206876,139.2979434,5,よつぎ第一保育園北側道路際,,東京都あきる野市雨間１０６５－１,,,,,,,,
あきる野市,07-2,35.7253252,139.2943418,5,市営雨間ハイツ前,,東京都あきる野市雨間５３３－１,,,,,,,,
あきる野市,07-3,35.7246942,139.2993425,5,秋留野公園南側入口際,,東京都あきる野市秋留４－４－３,,,,,,,,
あきる野市,07-4,35.7208671,139.2962923,5,内田 様宅西側,,東京都あきる野市雨間１０２２－１,,,,,,,,
あきる野市,07-5,35.7228859,139.2949468,5,シャトレーゼ都道南側,,東京都あきる野市雨間６９７,,,,,,,,
あきる野市,08-1,35.7180606,139.3130241,5,久保クラブ前フェンス,,東京都あきる野市小川５５５－１,,,,,,,,
あきる野市,08-2,35.7207036,139.3162878,5,小川交差点西側畑,,東京都あきる野市小川１８－１,,,,,,,,
あきる野市,08-3,35.7212031,139.3173576,5,小川会館東側バス停前,,東京都あきる野市小川７９９－２,,,,,,,,
あきる野市,08-4,35.7202832,139.321928,5,さわやかピュアコインランドリー前,,東京都あきる野市小川１０５５－３,,,,,,,,
あきる野市,08-5,35.7186002,139.3243109,5,仲田公園南側入口際,,東京都あきる野市小川東１-17-17,,,,,,,,
あきる野市,08-6,35.7222573,139.3228852,5,谷後公園北側入口際,,東京都あきる野市二宮東１-4-4,,,,,,,,
あきる野市,08-7,35.723474,139.3196066,5,ビレッジハウス秋多１号棟前ﾌｪﾝｽ,,東京都あきる野市二宮１４６０,,,,,,,,
あきる野市,09-1,35.7329846,139.3156413,5,森山会館前ブロック塀,,東京都あきる野市草花９４５,,,,,,,,
あきる野市,09-2,35.7367024,139.3080109,5,小田川 邸北側,,東京都あきる野市草花６９５－１,,,,,,,,
あきる野市,09-3,35.734063,139.3151576,5,山本 様宅北側畑,,東京都あきる野市草花９３８－１,,,,,,,,
あきる野市,09-4,35.7377572,139.3150502,5,田中 様 宅前ブロック塀,,東京都あきる野市草花１１１１－１,,,,,,,,
あきる野市,09-5,35.741155,139.3155172,5,リバーサイドＡ公園,,東京都あきる野市草花３６７０－５４３,,,,,,,,
あきる野市,09-6,35.7384496,139.3107208,5,永田橋通り・公民館通り交差点西側道路脇,,東京都あきる野市草花１４３９－２,,,,,,,,
あきる野市,09-7,35.7446448,139.3129155,5,田中 様宅東側土手,,東京都あきる野市草花１９０２－１,,,,,,,,
あきる野市,10-1,35.7257451,139.268559,5,原店交差点,,東京都あきる野市引田400-1,,,,,,,,
あきる野市,10-2,35.7298945,139.2687085,5,武蔵引田駅駐輪場,,東京都あきる野市引田280番地,,,,,,,,
あきる野市,10-3,35.7246863,139.2681828,5,二見屋金物店南側畑,,東京都あきる野市引田５８９－１,,,,,,,,
あきる野市,10-4,35.721283,139.2668878,5,武田 様宅ブロック塀,,東京都あきる野市引田７２９－１,,,,,,,,
あきる野市,10-5,35.7273972,139.2692731,5,秋川文化幼稚園北側キウイ畑,,東京都あきる野市引田３９４－１,,,,,,,,
あきる野市,10-6,35.7200598,139.268216,5,宮川 様宅南側資材置場,,東京都あきる野市引田７９５－１,,,,,,,,
あきる野市,10-7,35.7214662,139.2686709,5,真照寺駐車場東側,,東京都あきる野市引田８５０－１,,,,,,,,
あきる野市,11-1,35.7280877,139.2870114,5,秋川駅北口広場横,,東京都あきる野市秋川１-２３,,,,,,,,
あきる野市,11-2,35.7258653,139.2934418,5,坂本 様宅東側道路際,,東京都あきる野市雨間５０５－１７,,,,,,,,
あきる野市,11-3,35.7303717,139.2880853,5,秋川キララホール南側,,東京都あきる野市秋川１-１６－１,,,,,,,,
あきる野市,11-4,35.7321242,139.290892,5,大塚原っぱ公園西側,,東京都あきる野市秋川５－４,,,,,,,,
あきる野市,11-5,35.7324356,139.2854162,5,上塚場公園西側道路際,,東京都あきる野市秋川３-４,,,,,,,,
あきる野市,11-6,35.7382136,139.2884339,5,神明保育園前フェンス,,東京都あきる野市瀬戸岡４４６,,,,,,,,
あきる野市,11-7,35.7382852,139.2928757,5,瀬戸岡会館北側三角空き地,,東京都あきる野市瀬戸岡５２５－１,,,,,,,,
あきる野市,11-8,35.7287396,139.2946017,5,あきる野市役所敷地内,,東京都あきる野市二宮350,,,,,,,,
あきる野市,12-1,35.7246417,139.2551153,5,山田八幡神社北側市道ガードレール,,東京都あきる野市山田４７６－２,,,,,,,,
あきる野市,12-2,35.7277425,139.256637,5,(株)おのざわＬＰガス容器置場前,,東京都あきる野市山田５５５－１,,,,,,,,
あきる野市,12-3,35.7258152,139.2628457,5,観光トイレ敷地内,,東京都あきる野市山田８２２,,,,,,,,
あきる野市,12-4,35.7250424,139.2614429,5,石川 様宅南 市道沿い,,東京都あきる野市山田８４０－１,,,,,,,,
あきる野市,12-5,35.7267706,139.2582463,5,吉沢 様宅大谷石塀,,東京都あきる野市山田８９３－１,,,,,,,,
あきる野市,12-6,35.7258581,139.2577424,5,吉澤 様宅ブロック塀,,東京都あきる野市山田９５４－１,,,,,,,,
あきる野市,12-7,35.7244267,139.2510207,5,山本 様宅前市道ガードレール,,東京都あきる野市網代１６１,,,,,,,,
あきる野市,13-1,35.7261183,139.2547065,5,伊奈ハイツ,,東京都あきる野市伊奈１０４１,,,,,,,,
あきる野市,13-2,35.7266643,139.2505689,5,加藤 様宅大谷石塀,,東京都あきる野市伊奈１１０１－１,,,,,,,,
あきる野市,13-3,35.7290815,139.248278,5,小作木工（有）南側,,東京都あきる野市伊奈１２３７－２,,,,,,,,
あきる野市,13-4,35.7299409,139.2450049,5,中村 様宅西側垣根際,,東京都あきる野市伊奈１４３１,,,,,,,,
あきる野市,13-5,35.7274061,139.2464921,5,神田 様宅ブロック塀,,東京都あきる野市伊奈１５０１－１,,,,,,,,
あきる野市,13-6,35.7307611,139.2418951,5,秋川教材東側 石階段東側土手,,東京都あきる野市横沢１７－１,,,,,,,,
あきる野市,13-7,35.7320449,139.2409089,5,大悲願寺南側畑,,東京都あきる野市横沢５１－１,,,,,,,,
あきる野市,14-1,35.7327433,139.2530289,5,荻島 様宅ブロック塀,,東京都あきる野市伊奈４１２－１,,,,,,,,
あきる野市,14-2,35.7333239,139.2556732,5,いなげやあきる野北伊奈店西側植込,,東京都あきる野市伊奈４９２－１,,,,,,,,
あきる野市,14-3,35.7347516,139.2560491,5,五日市伊奈郵便局北側道路植込,,東京都あきる野市伊奈４６５－１２,,,,,,,,
あきる野市,14-4,35.7305953,139.2567713,5,嶋﨑 様宅フｴンス,,東京都あきる野市伊奈８１２－１,,,,,,,,
あきる野市,14-5,35.7295846,139.2551616,5,五日市ファインプラザ前,,東京都あきる野市伊奈８５９－３,,,,,,,,
あきる野市,14-6,35.7314781,139.2534231,5,鈴木 様宅南側栗林,,東京都あきる野市伊奈９６４－３,,,,,,,,
あきる野市,14-7,35.7313352,139.2494678,5,清水 様宅南 市道ガードレール,,東京都あきる野市伊奈１２６７－６,,,,,,,,
あきる野市,15-1,35.7298822,139.2196508,5,五日市会館北側駐車場,,東京都あきる野市五日市４１７－４,,,,,,,,
あきる野市,15-2,35.7292326,139.2211461,5,五日市中南側フェンス,,東京都あきる野市五日市４００,,,,,,,,
あきる野市,15-3,35.7276092,139.2156095,5,JA秋川五日市支店資材置場鉄柵,,東京都あきる野市小中野３６５－２,,,,,,,,
あきる野市,15-4,35.7270556,139.2128616,5,内倉 様宅ブロック塀,,東京都あきる野市小中野８７－３,,,,,,,,
あきる野市,15-5,35.7273103,139.2111339,5,坂本 様宅大谷石塀,,東京都あきる野市小中野２８８,,,,,,,,
あきる野市,15-6,35.7250265,139.22148,5,小和田橋北側東 市道ガードレール,,東京都あきる野市五日市１０９５－７,,,,,,,,
あきる野市,15-7,35.7238898,139.2221318,5,小和田橋下流トイレ付近ｶﾞｰﾄﾞﾚｰﾙ,,東京都あきる野市小和田１４３付近,,,,,,,,
あきる野市,16-1,35.729676,139.2247357,5,東町バス停前植え込み,,東京都あきる野市五日市１３５,,,,,,,,
あきる野市,16-2,35.7294249,139.228651,5,ハイムセランブロック塀,,東京都あきる野市留原８１９－１,,,,,,,,
あきる野市,16-3,35.7308663,139.2225556,5,五日市小学校南側フェンス,,東京都あきる野市五日市４５０,,,,,,,,
あきる野市,16-4,35.7321938,139.2255067,5,髙橋 様宅ブロック塀,,東京都あきる野市入野１４４－１,,,,,,,,
あきる野市,16-5,35.7352864,139.2262141,5,加藤商店北側空地,,東京都あきる野市入野３５８,,,,,,,,
あきる野市,16-6,35.7343739,139.2214452,5,樽自治会入口三叉路南 市道沿い,,東京都あきる野市五日市２９０－１,,,,,,,,
あきる野市,16-7,35.7404406,139.2158344,5,深沢橋西 市道ガードレール,,東京都あきる野市深沢１８８,,,,,,,,
あきる野市,17-1,35.7242864,139.2340518,5,柳川 様宅石塀,,東京都あきる野市留原１２９－１,,,,,,,,
あきる野市,17-2,35.7226441,139.2318026,5,青木 進 様宅ブロック塀,,東京都あきる野市留原１６６－５,,,,,,,,
あきる野市,17-3,35.7238113,139.2304359,5,古山 様宅,,東京都あきる野市留原１８６－１,,,,,,,,
あきる野市,18-1,35.7323726,139.2327605,5,野﨑 様宅ブロック塀,,東京都あきる野市三内１６９－１,,,,,,,,
あきる野市,18-2,35.7360916,139.227757,5,329番地先市道ガードレール,,東京都あきる野市三内329番地先,,,,,,,,
あきる野市,18-3,35.7286141,139.2412429,5,渡邉 様宅東側畑,,東京都あきる野市高尾１４－１,,,,,,,,
あきる野市,18-4,35.7254199,139.2379782,5,大光寺前 市道ガードレール,,東京都あきる野市高尾２３３,,,,,,,,
あきる野市,18-5,35.7299343,139.2309124,5,森谷 様宅ブロック塀,,東京都あきる野市舘谷１４１－３,,,,,,,,
あきる野市,18-6,35.7298944,139.2333849,5,ＮＴＴ旧五日市営業所前鉄柵,,東京都あきる野市舘谷１７３,,,,,,,,
あきる野市,18-7,35.7321605,139.2281398,5,武蔵五日市駅舎南側フェンス,,東京都あきる野市舘谷台１６,,,,,,,,
あきる野市,19-1,35.7256536,139.2061739,5,岡部 様宅 都道際,,東京都あきる野市戸倉６９－１,,,,,,,,
あきる野市,19-2,35.7281859,139.203129,5,ゲ－トボ－ル場前空き地,,東京都あきる野市戸倉２８４－１,,,,,,,,
あきる野市,19-3,35.7304724,139.2007709,5,(株)カネショウ倉庫前都道沿い,,東京都あきる野市戸倉７３２－２,,,,,,,,
あきる野市,19-4,35.7318668,139.2007096,5,黒山 様宅大谷石塀,,東京都あきる野市戸倉１０２９－２,,,,,,,,
あきる野市,19-5,35.7270264,139.1908016,5,丸十木住野林業南側空地,,東京都あきる野市戸倉１３９８－３,,,,,,,,
あきる野市,19-6,35.7224776,139.1948517,5,東平橋東 市道ガ－ドレ－ル,,東京都あきる野市戸倉１６４３,,,,,,,,
あきる野市,20-1,35.724379,139.1806468,5,荷田子駐車場南側フェンス,,東京都あきる野市乙津７０９－１,,,,,,,,
あきる野市,20-2,35.7255673,139.1710331,5,浦野 様宅ブロック塀,,東京都あきる野市乙津１０３９－１,,,,,,,,
あきる野市,20-3,35.7261478,139.1786552,5,旧乙津自治会館 西側道路ガードレール,,東京都あきる野市乙津１２６５－ィ,,,,,,,,
あきる野市,21-1,35.7299063,139.187342,5,大戸里神社 西側道路際,,東京都あきる野市乙津５３７－２,,,,,,,,
あきる野市,21-2,35.7338407,139.1835814,5,小宮ふるさと自然体験学校南側フェンス,,東京都あきる野市乙津１９８４,,,,,,,,
あきる野市,21-3,35.7349746,139.1864315,5,山崎 様宅南側市道ガ－ドレ－ル,,東京都あきる野市乙津２０４１,,,,,,,,
あきる野市,22-1,35.7418498,139.1899152,5,池谷 様宅大谷石塀,,東京都あきる野市養沢６５－１,,,,,,,,
あきる野市,22-2,35.7450394,139.1896469,5,森屋 様宅大谷石塀,,東京都あきる野市養沢１７５ーイ,,,,,,,,
あきる野市,22-3,35.7584925,139.1705334,5,大岳橋バス停横ガードレール,,東京都あきる野市養沢１０１５番地先,,,,,,,,
あきる野市,22-4,35.7531792,139.180007,5,沖倉 様宅向かい市道ガードレール,,東京都あきる野市養沢１１３５－１,,,,,,,,
あきる野市,23-1,35.7163307,139.2910021,5,いきいきセンター西側植え込み,,東京都あきる野市雨間１９４６,,,,,,,,
あきる野市,23-2,35.7160868,139.2933085,5,小岩井 様宅北側ブロック,,東京都あきる野市雨間１８５９－１,,,,,,,,
あきる野市,23-3,35.7153038,139.29571,5,山水工業北側駐車場西側畑,,東京都あきる野市雨間１８４９－１,,,,,,,,
あきる野市,23-4,35.7167569,139.2978281,5,臼井 様宅南側畑,,東京都あきる野市雨間１８２４－１,,,,,,,,
あきる野市,23-5,35.7155624,139.2988417,5,平野様宅西南フェンス,,東京都あきる野市切欠１９７８－１,,,,,,,,
檜原村,1-1,35.72585342,139.1532384,1,檜原村福祉センター入口,,東京都西多摩郡檜原村429番地,,,,,,,,
檜原村,1-2,35.72666116,139.1489634,1,檜原村役場前,,東京都西多摩郡檜原村467番地,,,,,,,,
檜原村,1-3,35.72971637,139.1438486,1,払沢の滝入口パス停前,,東京都西多摩郡檜原村5557番地,,,,,,,,
檜原村,1-4,35.71504156,139.1501524,1,野村康夫宅前,,東京都西多摩郡檜原村717番地,,,,,,,,
檜原村,2-1,35.70405634,139.12494,1,矢沢入口,,東京都西多摩郡檜原村1069番地,,,,,,,,
檜原村,3-1,35.71291873,139.089019,1,人里公衆トイレ下,,東京都西多摩郡檜原村1696番地,,,,,,,,
檜原村,3-2,35.71348762,139.0862845,1,西川橋バス停横,,東京都西多摩郡檜原村1836番地,,,,,,,,
檜原村,4-1,35.72371747,139.0627978,1,浅間尾根登山口入口バス停横,,東京都西多摩郡檜原村6922番地1,,,,,,,,
檜原村,4-2,35.72641775,139.049738,1,たから荘駐車場横,,東京都西多摩郡檜原村2465番地,,,,,,,,
檜原村,5-1,35.74077695,139.1389838,1,中里会館横,,東京都西多摩郡檜原村2979番地,,,,,,,,
檜原村,5-2,35.74663376,139.1219279,1,神戸春日神社前,,東京都西多摩郡檜原村3416番地,,,,,,,,
檜原村,6-1,35.73979114,139.122137,1,峰岸茂宅前,,東京都西多摩郡檜原村3728番地,,,,,,,,
檜原村,6-2,35.73455998,139.125252,1,大谷智幸宅前,,東京都西多摩郡檜原村3992番地,,,,,,,,
檜原村,7-1,35.73207499,139.1119904,1,第2小岩住宅前,,東京都西多摩郡檜原村4271番地,,,,,,,,
檜原村,7-2,35.732822,139.10247,1,清水安夫宅前,,東京都西多摩郡檜原村4520番地,,,,,,,,
檜原村,8-1,35.740151,139.081562,1,除毛橋脇,,東京都西多摩郡檜原村9091番地,,,,,,,,
瑞穂町,1-1,35.765209,139.363198,5,小蜂様方プロック塀,,東京都西多摩郡瑞穂町大字殿ヶ谷930番地,,,,,,,,
瑞穂町,1-2,35.761501,139.361935,5,保坂様方野立 ((株)やまそうアンジェリーカ向い),,東京都西多摩郡瑞穂町大字殿ヶ谷778番地2,,,,,,,,
瑞穂町,1-3,35.766062,139.361424,5,中野様方プロック塀,,東京都西多摩郡瑞穂町大字殿ヶ谷901番地,,,,,,,,
瑞穂町,1-4,35.7617071,139.3573311,5,殿ヶ谷区画整理組合事務所野立,,東京都西多摩郡瑞穂町大字殿ヶ谷696番地5,,,,,,,,
瑞穂町,1-5,35.7681541,139.3607118,5,鳥海管工様プロック塀,,東京都西多摩郡瑞穂町大字殿ヶ谷1076番地,,,,,,,,
瑞穂町,1-6,35.7599057,139.3590912,5,ジョイフル本田瑞穂店東側フェンス,,東京都西多摩郡瑞穂町大字殿ヶ谷442番地,,,,,,,,
瑞穂町,1-7,35.7646656,139.3597047,5,川添荘プロック塀,,東京都西多摩郡瑞穂町大字殿ヶ谷835番地1,,,,,,,,
瑞穂町,2-1,35.7690578,139.3595419,5,石畑下集会所フェンス,,東京都西多摩郡瑞穂町大字石畑1708番地1,,,,,,,,
瑞穂町,2-2,35.7704459,139.3578904,5,村田マンションフェンス,,東京都西多摩郡瑞穂町大字石畑1901番地,,,,,,,,
瑞穂町,2-3,35.769242,139.355927,5,吉岡様方プロック塀,,東京都西多摩郡瑞穂町大字石畑1834番地,,,,,,,,
瑞穂町,2-4,35.7712097,139.3545365,5,瑞穗町役場庁用車南駐車場フェンス,,東京都西多摩郡瑞穂町大字石畑1873番地1,,,,,,,,
瑞穂町,2-5,35.7685358,139.3545467,5,吉岡様方プロック塀,,東京都西多摩郡瑞穂町大字石畑5番地,,,,,,,,
瑞穂町,2-6,35.7670583,139.353304,5,吉岡様方プロック塀,,東京都西多摩郡瑞穂町大字石畑14番地4,,,,,,,,
瑞穂町,2-7,35.7654434,139.3555671,5,石畑会館フェンス,,東京都西多摩郡瑞穂町大字石畑211番地3,,,,,,,,
瑞穂町,3-1,35.770179,139.352384,5,西多摩農協瑞穂支店前植込み野立,,東京都西多摩郡瑞穂町大字箱根ヶ崎2261番地,,,,,,,,
瑞穂町,3-2,35.7687252,139.352337,5,瑞穂第一小学校フェンス,,東京都西多摩郡瑞穂町大字箱根ヶ崎2287番地,,,,,,,,
瑞穂町,3-3,35.7711229,139.3462768,5,箱根ヶ崎西口ロータリー内野立,,東京都西多摩郡瑞穂町大字箱根ヶ崎387番地1,,,,,,,,
瑞穂町,3-4,35.7711056,139.3492288,5,山田様方プロック塀,,東京都西多摩郡瑞穂町大字箱根ヶ崎265番地,,,,,,,,
瑞穂町,3-5,35.771297,139.346759,5,JR八高線箱根ヶ崎駅東西自由通路内,,東京都西多摩郡瑞穂町大字箱根ヶ崎397番地,,,,,,,,
瑞穂町,3-6,35.7679652,139.3498696,5,箱根ヶ崎南会館フェンス,,東京都西多摩郡瑞穂町大字武蔵3番地,,,,,,,,
瑞穂町,3-7,35.7736446,139.3517715,5,東京都酪農業協同組合前緑地帯野立,,東京都西多摩郡瑞穂町大字箱根ヶ崎99番地2,,,,,,,,
瑞穂町,4-1,35.7753104,139.3343012,5,下野公園北側フェンス,,東京都西多摩郡瑞穂町長岡1丁目40番地,,,,,,,,
瑞穂町,4-2,35.7787675,139.3310863,5,本橋様方プロック塀,,東京都西多摩郡瑞穂町大字長岡長谷部218番地,,,,,,,,
瑞穂町,4-3,35.7771684,139.3284574,5,長岡南会館フェンス,,東京都西多摩郡瑞穂町長岡4丁目6番地4,,,,,,,,
瑞穂町,4-4,35.7788257,139.3270584,5,かすが公園東側フェンス,,東京都西多摩郡瑞穂町長岡4丁目24番地,,,,,,,,
瑞穂町,4-5,35.782393,139.33008,5,近藤様方プロック塀,,東京都西多摩郡瑞穂町大字長岡長谷部249番地,,,,,,,,
瑞穂町,4-6,35.7799031,139.3344206,5,(株)生出西側野立,,東京都西多摩郡瑞穂町大字長岡長谷部176番地15,,,,,,,,
瑞穂町,4-7,35.786109,139.3303451,5,西村様方プロック塀,,東京都西多摩郡瑞穂町大字長岡長谷部345番地3,,,,,,,,
瑞穂町,5-1,35.7924499,139.3387628,5,栗原町会館野立,,東京都西多摩郡瑞穂町大字富士山栗原新田33番地1,,,,,,,,
瑞穂町,5-2,35.7924076,139.3539921,5,友野様方野立,,東京都西多摩郡瑞穂町大字ニ本木659番地3,,,,,,,,
瑞穂町,5-3,35.7798055,139.3525906,5,富士山公会堂野立,,東京都西多摩郡瑞穂町大字駒形富士山207番地,,,,,,,,
瑞穂町,5-4,35.7862571,139.3548223,5,ホワイト急便東側フェンス,,東京都西多摩郡瑞穂町大字駒形富士山495番地,,,,,,,,
瑞穂町,5-5,35.7879026,139.3490212,5,ストアーコヤマ横野立,,東京都西多摩郡瑞穂町大字高根652番地3,,,,,,,,
瑞穂町,5-6,35.7903239,139.3558674,5,瑞穂第三小学校フェンス,,東京都西多摩郡瑞穂町大字ニ本木670番地,,,,,,,,
瑞穂町,5-7,35.7857127,139.3514979,5,ロジボート多摩瑞穂東側野立,,東京都西多摩郡瑞穂町大字高根632番地3,,,,,,,,
瑞穂町,6-1,35.7632906,139.3374142,5,都営瑞穂アバート集会所前公園野立,,東京都西多摩郡瑞穂町むさし野1丁目1番地,,,,,,,,
瑞穂町,6-2,35.762155,139.3385548,5,むさし野公園(駐在所横)野立,,東京都西多摩郡瑞穂町むさし野1丁目2番地,,,,,,,,
瑞穂町,6-3,35.7608822,139.3395034,5,都営瑞穂アパート23号棟公園前野立,,東京都西多摩郡瑞穂町むさし野1丁目5番地,,,,,,,,
瑞穂町,6-4,35.7608827,139.3373818,5,都営瑞穂アパート12号前野立,,東京都西多摩郡瑞穂町むさし野1丁目2番地,,,,,,,,
瑞穂町,6-5,35.7591793,139.3378546,5,みずほさかえ公園フェンス,,東京都西多摩郡瑞穂町むさし野2丁目43番地2,,,,,,,,
瑞穂町,6-6,35.7582196,139.3409443,5,富士見中央公園フェンス,,東京都西多摩郡瑞穂町むさし野2丁目8番地5,,,,,,,,
瑞穂町,6-7,35.757797,139.338285,5,武蔵野児童公園フェンス,,東京都西多摩郡瑞穂町むさし野2丁目20番地5,,,,,,,,
瑞穂町,7-1,35.7759441,139.3504769,5,狭山神社入口野立,,東京都西多摩郡瑞穂町大字箱根ヶ崎2番地,,,,,,,,
瑞穂町,7-2,35.7759145,139.347838,5,瑞穂武道館フェンス,,東京都西多摩郡瑞穂町大字箱根ヶ崎519番地,,,,,,,,
瑞穂町,7-3,35.7731093,139.3485783,5,円福寺駐車場フェンス,,東京都西多摩郡瑞穂町大字箱根ヶ崎154番地,,,,,,,,
瑞穂町,7-4,35.7787003,139.349293,5,吉岡園芸フェンス,,東京都西多摩郡瑞穂町大字箱根ヶ崎752番地1,,,,,,,,
瑞穂町,7-5,35.7748041,139.34607,5,松原稲荷神社西側野立,,東京都西多摩郡瑞穂町大字箱根ヶ崎472番地1,,,,,,,,
瑞穂町,7-6,35.7765273,139.3485199,5,狭山池公園調練橋手前野立,,東京都西多摩郡瑞穂町大字箱根ヶ崎708番地,,,,,,,,
瑞穂町,7-7,35.7767764,139.3428284,5,ふれつしゅはうす駐車場フェンス,,東京都西多摩郡瑞穂町大字箱根ヶ崎611番地1,,,,,,,,
瑞穂町,8-1,35.7748835,139.3393628,5,さくら公園フェンス,,東京都西多摩郡瑞穂町箱根ヶ崎東松原33番地,,,,,,,,
瑞穂町,8-2,35.7739586,139.3397223,5,(株)玄聖緑道野立,,東京都西多摩郡瑞穂町箱根ヶ崎東松原19番地6,,,,,,,,
瑞穂町,8-3,35.7708882,139.3398058,5,松原ひがし公園フェンス,,東京都西多摩郡瑞穂町箱根ヶ崎東松原7番地,,,,,,,,
瑞穂町,8-4,35.7686521,139.3368813,5,瑞穗第四小学校フェンス,,東京都西多摩郡瑞穂町箱根ヶ崎西松原2番地1,,,,,,,,
瑞穂町,8-5,35.7652397,139.3384704,5,南平ひばり公園東側フェンス,,東京都西多摩郡瑞穂町南平2丁目37番地,,,,,,,,
瑞穂町,8-6,35.7716653,139.3343861,5,松原中央公園野立,,東京都西多摩郡瑞穂町箱根ヶ崎西松原42番地,,,,,,,,
瑞穂町,8-7,35.7709101,139.33678,5,関谷様方フェンス,,東京都西多摩郡瑞穂町箱根ヶ崎西松原35番地1,,,,,,,,
瑞穂町,9-1,35.784497,139.361223,5,栗原様方プロック塀,,東京都西多摩郡瑞穂町大字二本木841番地4,,,,,,,,
瑞穂町,9-2,35.784336,139.3630093,5,高根町会館生垣,,東京都西多摩郡瑞穂町大字高根94番地4,,,,,,,,
瑞穂町,9-3,35.7853877,139.3640388,5,高根下公園フェンス,,東京都西多摩郡瑞穂町大字高根68番地1,,,,,,,,
瑞穂町,9-4,35.7878491,139.3648713,5,関谷様方フェンス,,東京都西多摩郡瑞穂町大字駒形富士山64番地4,,,,,,,,
瑞穂町,9-5,35.7879448,139.3676018,5,栗原様方フェンス,,東京都西多摩郡瑞穂町大字駒形富士山17番地8,,,,,,,,
瑞穂町,9-6,35.7813207,139.3589882,5,竹内運輸工業株式会社駐車場フェンス,,東京都西多摩郡瑞穂町大字高根277番地,,,,,,,,
瑞穂町,9-7,35.7850162,139.3665376,5,古山様方北側野立,,東京都西多摩郡瑞穂町大字高根29番地,,,,,,,,